{"type": "FeatureCollection", "features": [ {"type": "Feature", "properties": {"norad_id": 67123, "name": "STARLINK-36151", "group": "last-30-days", "lat": -42.455634050271485, "lon": 148.4497386781653, "alt_km": 343.86310255820354, "timestamp": "2025-12-27T06:41:29.623091+00:00", "meta": {"OBJECT_NAME": "STARLINK-36151", "OBJECT_ID": "2025-299X", "EPOCH": "2025-12-26T22:00:01.999584", "MEAN_MOTION": 15.77456529, "ECCENTRICITY": 0.00016235, "INCLINATION": 42.9985, "RA_OF_ASC_NODE": 229.7312, "ARG_OF_PERICENTER": 268.6208, "MEAN_ANOMALY": 111.3923, "EPHEMERIS_TYPE": 0, "CLASSIFICATION_TYPE": "U", "NORAD_CAT_ID": 67123, "ELEMENT_SET_NO": 999, "REV_AT_EPOCH": 308, "BSTAR": -0.011929193, "MEAN_MOTION_DOT": -0.01791418, "MEAN_MOTION_DDOT": 0}, "tle": {"line1": "1 67123U 25299X   25360.91668981 -.01791418  00000+0 -11929-1 0  9995", "line2": "2 67123  42.9985 229.7312 0001623 268.6208 111.3923 15.77456529  3080"}}, "geometry": {"type": "Point", "coordinates": [148.4497386781653, -42.455634050271485]}}, {"type": "Feature", "properties": {"norad_id": 67124, "name": "STARLINK-36195", "group": "last-30-days", "lat": -41.59232766025186, "lon": 155.22935361352316, "alt_km": 343.70710518793385, "timestamp": "2025-12-27T06:41:29.623104+00:00", "meta": {"OBJECT_NAME": "STARLINK-36195", "OBJECT_ID": "2025-299Y", "EPOCH": "2025-12-26T22:00:01.999584", "MEAN_MOTION": 15.77485671, "ECCENTRICITY": 0.00017358, "INCLINATION": 42.9984, "RA_OF_ASC_NODE": 229.7183, "ARG_OF_PERICENTER": 268.4242, "MEAN_ANOMALY": 116.6779, "EPHEMERIS_TYPE": 0, "CLASSIFICATION_TYPE": "U", "NORAD_CAT_ID": 67124, "ELEMENT_SET_NO": 999, "REV_AT_EPOCH": 308, "BSTAR": -0.011957674, "MEAN_MOTION_DOT": -0.01797337, "MEAN_MOTION_DDOT": 0}, "tle": {"line1": "1 67124U 25299Y   25360.91668981 -.01797337  00000+0 -11958-1 0  9994", "line2": "2 67124  42.9984 229.7183 0001735 268.4242 116.6779 15.77485671  3083"}}, "geometry": {"type": "Point", "coordinates": [155.22935361352316, -41.59232766025186]}}, {"type": "Feature", "properties": {"norad_id": 67125, "name": "STARLINK-36219", "group": "last-30-days", "lat": -41.22979898667042, "lon": 157.371097901917, "alt_km": 343.68838174508073, "timestamp": "2025-12-27T06:41:29.623115+00:00", "meta": {"OBJECT_NAME": "STARLINK-36219", "OBJECT_ID": "2025-299Z", "EPOCH": "2025-12-26T22:00:01.999584", "MEAN_MOTION": 15.77500555, "ECCENTRICITY": 0.00016962, "INCLINATION": 42.9981, "RA_OF_ASC_NODE": 229.7139, "ARG_OF_PERICENTER": 270.3486, "MEAN_ANOMALY": 116.3904, "EPHEMERIS_TYPE": 0, "CLASSIFICATION_TYPE": "U", "NORAD_CAT_ID": 67125, "ELEMENT_SET_NO": 999, "REV_AT_EPOCH": 308, "BSTAR": -0.011996669, "MEAN_MOTION_DOT": -0.01803498, "MEAN_MOTION_DDOT": 0}, "tle": {"line1": "1 67125U 25299Z   25360.91668981 -.01803498  00000+0 -11997-1 0  9994", "line2": "2 67125  42.9981 229.7139 0001696 270.3486 116.3904 15.77500555  3086"}}, "geometry": {"type": "Point", "coordinates": [157.371097901917, -41.22979898667042]}}, {"type": "Feature", "properties": {"norad_id": 67126, "name": "STARLINK-36223", "group": "last-30-days", "lat": -40.77199839631818, "lon": 159.76686367017507, "alt_km": 343.67528429001413, "timestamp": "2025-12-27T06:41:29.623126+00:00", "meta": {"OBJECT_NAME": "STARLINK-36223", "OBJECT_ID": "2025-299AA", "EPOCH": "2025-12-26T22:00:01.999584", "MEAN_MOTION": 15.77495962, "ECCENTRICITY": 0.00016949, "INCLINATION": 42.9981, "RA_OF_ASC_NODE": 229.709, "ARG_OF_PERICENTER": 269.1893, "MEAN_ANOMALY": 119.4194, "EPHEMERIS_TYPE": 0, "CLASSIFICATION_TYPE": "U", "NORAD_CAT_ID": 67126, "ELEMENT_SET_NO": 999, "REV_AT_EPOCH": 308, "BSTAR": -0.011913842, "MEAN_MOTION_DOT": -0.01792259, "MEAN_MOTION_DDOT": 0}, "tle": {"line1": "1 67126U 25299AA  25360.91668981 -.01792259  00000+0 -11914-1 0  9996", "line2": "2 67126  42.9981 229.7090 0001694 269.1893 119.4194 15.77495962  3089"}}, "geometry": {"type": "Point", "coordinates": [159.76686367017507, -40.77199839631818]}}, {"type": "Feature", "properties": {"norad_id": 67127, "name": "STARLINK-36164", "group": "last-30-days", "lat": -40.30007362461464, "lon": 161.97397718680472, "alt_km": 343.6336676139581, "timestamp": "2025-12-27T06:41:29.623136+00:00", "meta": {"OBJECT_NAME": "STARLINK-36164", "OBJECT_ID": "2025-299AB", "EPOCH": "2025-12-26T22:00:01.999584", "MEAN_MOTION": 15.77504113, "ECCENTRICITY": 0.00016971, "INCLINATION": 42.9982, "RA_OF_ASC_NODE": 229.7046, "ARG_OF_PERICENTER": 270.6659, "MEAN_ANOMALY": 119.6813, "EPHEMERIS_TYPE": 0, "CLASSIFICATION_TYPE": "U", "NORAD_CAT_ID": 67127, "ELEMENT_SET_NO": 999, "REV_AT_EPOCH": 308, "BSTAR": -0.011920266, "MEAN_MOTION_DOT": -0.01793688, "MEAN_MOTION_DDOT": 0}, "tle": {"line1": "1 67127U 25299AB  25360.91668981 -.01793688  00000+0 -11920-1 0  9991", "line2": "2 67127  42.9982 229.7046 0001697 270.6659 119.6813 15.77504113  3081"}}, "geometry": {"type": "Point", "coordinates": [161.97397718680472, -40.30007362461464]}}, {"type": "Feature", "properties": {"norad_id": 67128, "name": "STARLINK-35685", "group": "last-30-days", "lat": -38.9035234090591, "lon": 167.48226745280556, "alt_km": 343.68424665798284, "timestamp": "2025-12-27T06:41:29.623146+00:00", "meta": {"OBJECT_NAME": "STARLINK-35685", "OBJECT_ID": "2025-299AC", "EPOCH": "2025-12-26T22:00:01.999584", "MEAN_MOTION": 15.77476991, "ECCENTRICITY": 0.00015983, "INCLINATION": 42.9981, "RA_OF_ASC_NODE": 229.693, "ARG_OF_PERICENTER": 279.5475, "MEAN_ANOMALY": 115.3197, "EPHEMERIS_TYPE": 0, "CLASSIFICATION_TYPE": "U", "NORAD_CAT_ID": 67128, "ELEMENT_SET_NO": 999, "REV_AT_EPOCH": 308, "BSTAR": -0.011933871, "MEAN_MOTION_DOT": -0.01793467, "MEAN_MOTION_DDOT": 0}, "tle": {"line1": "1 67128U 25299AC  25360.91668981 -.01793467  00000+0 -11934-1 0  9992", "line2": "2 67128  42.9981 229.6930 0001598 279.5475 115.3197 15.77476991  3086"}}, "geometry": {"type": "Point", "coordinates": [167.48226745280556, -38.9035234090591]}}, {"type": "Feature", "properties": {"norad_id": 67129, "name": "STARLINK-36214", "group": "last-30-days", "lat": -39.72607926888876, "lon": 164.3934380476487, "alt_km": 343.59533487439694, "timestamp": "2025-12-27T06:41:29.623156+00:00", "meta": {"OBJECT_NAME": "STARLINK-36214", "OBJECT_ID": "2025-299AD", "EPOCH": "2025-12-26T22:00:01.999584", "MEAN_MOTION": 15.77501689, "ECCENTRICITY": 0.00017562, "INCLINATION": 42.9984, "RA_OF_ASC_NODE": 229.7, "ARG_OF_PERICENTER": 270.119, "MEAN_ANOMALY": 122.1764, "EPHEMERIS_TYPE": 0, "CLASSIFICATION_TYPE": "U", "NORAD_CAT_ID": 67129, "ELEMENT_SET_NO": 999, "REV_AT_EPOCH": 308, "BSTAR": -0.011921731, "MEAN_MOTION_DOT": -0.01793759, "MEAN_MOTION_DDOT": 0}, "tle": {"line1": "1 67129U 25299AD  25360.91668981 -.01793759  00000+0 -11922-1 0  9994", "line2": "2 67129  42.9984 229.7000 0001756 270.1190 122.1764 15.77501689  3085"}}, "geometry": {"type": "Point", "coordinates": [164.3934380476487, -39.72607926888876]}}, {"type": "Feature", "properties": {"norad_id": 67130, "name": "STARLINK-36194", "group": "last-30-days", "lat": -37.41698989201913, "lon": 172.29230313520395, "alt_km": 344.0757480894936, "timestamp": "2025-12-27T06:41:29.623166+00:00", "meta": {"OBJECT_NAME": "STARLINK-36194", "OBJECT_ID": "2025-299AE", "EPOCH": "2025-12-26T22:00:01.999584", "MEAN_MOTION": 15.77389245, "ECCENTRICITY": 0.00014332, "INCLINATION": 42.9982, "RA_OF_ASC_NODE": 229.6845, "ARG_OF_PERICENTER": 272.2491, "MEAN_ANOMALY": 126.809, "EPHEMERIS_TYPE": 0, "CLASSIFICATION_TYPE": "U", "NORAD_CAT_ID": 67130, "ELEMENT_SET_NO": 999, "REV_AT_EPOCH": 309, "BSTAR": -0.012047575, "MEAN_MOTION_DOT": -0.01802009, "MEAN_MOTION_DDOT": 0}, "tle": {"line1": "1 67130U 25299AE  25360.91668981 -.01802009  00000+0 -12048-1 0  9995", "line2": "2 67130  42.9982 229.6845 0001433 272.2491 126.8090 15.77389245  3096"}}, "geometry": {"type": "Point", "coordinates": [172.29230313520395, -37.41698989201913]}}, {"type": "Feature", "properties": {"norad_id": 67131, "name": "ZIYUAN 3-04 (ZY 3-04)", "group": "last-30-days", "lat": -65.93606001509241, "lon": 92.4551797390562, "alt_km": 510.99866696251684, "timestamp": "2025-12-27T06:41:29.623176+00:00", "meta": {"OBJECT_NAME": "ZIYUAN 3-04 (ZY 3-04)", "OBJECT_ID": "2025-300A", "EPOCH": "2025-12-27T02:15:00.635904", "MEAN_MOTION": 15.21251311, "ECCENTRICITY": 0.0003125, "INCLINATION": 97.4921, "RA_OF_ASC_NODE": 75.1314, "ARG_OF_PERICENTER": 152.4137, "MEAN_ANOMALY": 207.7264, "EPHEMERIS_TYPE": 0, "CLASSIFICATION_TYPE": "U", "NORAD_CAT_ID": 67131, "ELEMENT_SET_NO": 999, "REV_AT_EPOCH": 167, "BSTAR": 9.4249e-05, "MEAN_MOTION_DOT": 2.035e-05, "MEAN_MOTION_DDOT": 0}, "tle": {"line1": "1 67131U 25300A   25361.09375736  .00002035  00000+0  94249-4 0  9996", "line2": "2 67131  97.4921  75.1314 0003125 152.4137 207.7264 15.21251311  1671"}}, "geometry": {"type": "Point", "coordinates": [92.4551797390562, -65.93606001509241]}}, {"type": "Feature", "properties": {"norad_id": 67132, "name": "CZ-4B R/B", "group": "last-30-days", "lat": 7.3434978584343495, "lon": -102.83772556157172, "alt_km": 488.82615871323196, "timestamp": "2025-12-27T06:41:29.623189+00:00", "meta": {"OBJECT_NAME": "CZ-4B R/B", "OBJECT_ID": "2025-300B", "EPOCH": "2025-12-18T16:13:04.609056", "MEAN_MOTION": 15.63831828, "ECCENTRICITY": 0.01741973, "INCLINATION": 97.5563, "RA_OF_ASC_NODE": 66.966, "ARG_OF_PERICENTER": 9.3582, "MEAN_ANOMALY": 351.0851, "EPHEMERIS_TYPE": 0, "CLASSIFICATION_TYPE": "U", "NORAD_CAT_ID": 67132, "ELEMENT_SET_NO": 999, "REV_AT_EPOCH": 40, "BSTAR": 0.00019566238, "MEAN_MOTION_DOT": 0.00040543, "MEAN_MOTION_DDOT": 2.652968e-06}, "tle": {"line1": "1 67132U 25300B   25352.67574779  .00040543  26530-5  19566-3 0  9995", "line2": "2 67132  97.5563  66.9660 0174197   9.3582 351.0851 15.63831828   407"}}, "geometry": {"type": "Point", "coordinates": [-102.83772556157172, 7.3434978584343495]}}]}